HST                     
1 20580U 90037B   24099.65829826  .00004817  00000+0  23011-3 0  9993
2 20580  28.4682  90.6001 0002379 358.1346   1.9237 15.16636050666467
